IXPE                    
1 49954U 21121A   23303.04282205  .00007273  00000+0  57165-3 0  9997
2 49954   0.2316 305.2519 0009962  94.0266 320.7940 14.95277290103222
